{
  "type": "FeatureCollection",
  "features": [
    {
      "type": "Feature",
      "properties": {
        "norad_id": 66905,
        "name": "STARLINK-36075",
        "group": "last-30-days",
        "lat": 20.888873062845185,
        "lon": 172.5211043209105,
        "alt_km": 385.59015189155616,
        "timestamp": "2025-12-25T16:53:13.373744+00:00",
        "meta_object_name": "STARLINK-36075",
        "meta_object_id": "2025-283AD",
        "meta_epoch": "2025-12-25T06:00:04.000320",
        "meta_mean_motion": 15.61836701,
        "meta_eccentricity": 0.00013739,
        "meta_inclination": 53.1598,
        "meta_ra_of_asc_node": 11.3545,
        "meta_arg_of_pericenter": 74.8441,
        "meta_mean_anomaly": 48.4615,
        "meta_ephemeris_type": 0,
        "meta_classification_type": "U",
        "meta_norad_cat_id": 66905,
        "meta_element_set_no": 999,
        "meta_rev_at_epoch": 444,
        "meta_bstar": -0.025798426,
        "meta_mean_motion_dot": -0.02002655,
        "meta_mean_motion_ddot": 0,
        "tle_line1": "1 66905U 25283AD  25359.25004630 -.02002655  00000+0 -25798-1 0  9993",
        "tle_line2": "2 66905  53.1598  11.3545 0001373  74.8441  48.4615 15.61836701  4448"
      },
      "geometry": {
        "type": "Point",
        "coordinates": [
          172.5211043209105,
          20.888873062845185
        ]
      }
    },
    {
      "type": "Feature",
      "properties": {
        "norad_id": 66906,
        "name": "1998-067XS",
        "group": "last-30-days",
        "lat": 38.474570978266684,
        "lon": -140.92747999456947,
        "alt_km": 409.2834159495742,
        "timestamp": "2025-12-25T16:53:13.373754+00:00",
        "meta_object_name": "1998-067XS",
        "meta_object_id": "1998-067XS",
        "meta_epoch": "2025-12-25T05:31:02.274816",
        "meta_mean_motion": 15.51241036,
        "meta_eccentricity": 0.00027545,
        "meta_inclination": 51.6322,
        "meta_ra_of_asc_node": 80.4463,
        "meta_arg_of_pericenter": 265.4219,
        "meta_mean_anomaly": 94.6456,
        "meta_ephemeris_type": 0,
        "meta_classification_type": "U",
        "meta_norad_cat_id": 66906,
        "meta_element_set_no": 999,
        "meta_rev_at_epoch": 355,
        "meta_bstar": 0.00049047062,
        "meta_mean_motion_dot": 0.000289,
        "meta_mean_motion_ddot": 0,
        "tle_line1": "1 66906U 98067XS  25359.22988744  .00028900  00000+0  49047-3 0  9990",
        "tle_line2": "2 66906  51.6322  80.4463 0002754 265.4219  94.6456 15.51241036  3555"
      },
      "geometry": {
        "type": "Point",
        "coordinates": [
          -140.92747999456947,
          38.474570978266684
        ]
      }
    },
    {
      "type": "Feature",
      "properties": {
        "norad_id": 66907,
        "name": "1998-067XT",
        "group": "last-30-days",
        "lat": -19.12509485481987,
        "lon": -86.1227048010621,
        "alt_km": 411.0366590529684,
        "timestamp": "2025-12-25T16:53:13.373766+00:00",
        "meta_object_name": "1998-067XT",
        "meta_object_id": "1998-067XT",
        "meta_epoch": "2025-12-24T10:39:56.166048",
        "meta_mean_motion": 15.52879993,
        "meta_eccentricity": 0.00038856,
        "meta_inclination": 51.6313,
        "meta_ra_of_asc_node": 84.2012,
        "meta_arg_of_pericenter": 298.2919,
        "meta_mean_anomaly": 61.7678,
        "meta_ephemeris_type": 0,
        "meta_classification_type": "U",
        "meta_norad_cat_id": 66907,
        "meta_element_set_no": 999,
        "meta_rev_at_epoch": 343,
        "meta_bstar": 0.0010726177,
        "meta_mean_motion_dot": 0.00067981,
        "meta_mean_motion_ddot": 0,
        "tle_line1": "1 66907U 98067XT  25358.44440007  .00067981  00000+0  10726-2 0  9992",
        "tle_line2": "2 66907  51.6313  84.2012 0003885 298.2919  61.7678 15.52879993  3433"
      },
      "geometry": {
        "type": "Point",
        "coordinates": [
          -86.1227048010621,
          -19.12509485481987
        ]
      }
    },
    {
      "type": "Feature",
      "properties": {
        "norad_id": 66908,
        "name": "1998-067XU",
        "group": "last-30-days",
        "lat": -23.804071373824037,
        "lon": -81.62664940496666,
        "alt_km": 410.7901237598544,
        "timestamp": "2025-12-25T16:53:13.373778+00:00",
        "meta_object_name": "1998-067XU",
        "meta_object_id": "1998-067XU",
        "meta_epoch": "2025-12-24T10:38:25.805472",
        "meta_mean_motion": 15.52977314,
        "meta_eccentricity": 0.00038638,
        "meta_inclination": 51.6323,
        "meta_ra_of_asc_node": 84.1936,
        "meta_arg_of_pericenter": 296.7785,
        "meta_mean_anomaly": 63.2809,
        "meta_ephemeris_type": 0,
        "meta_classification_type": "U",
        "meta_norad_cat_id": 66908,
        "meta_element_set_no": 999,
        "meta_rev_at_epoch": 343,
        "meta_bstar": 0.0010585814,
        "meta_mean_motion_dot": 0.00067317,
        "meta_mean_motion_ddot": 0,
        "tle_line1": "1 66908U 98067XU  25358.44335423  .00067317  00000+0  10586-2 0  9995",
        "tle_line2": "2 66908  51.6323  84.1936 0003863 296.7785  63.2809 15.52977314  3438"
      },
      "geometry": {
        "type": "Point",
        "coordinates": [
          -81.62664940496666,
          -23.804071373824037
        ]
      }
    },
    {
      "type": "Feature",
      "properties": {
        "norad_id": 66909,
        "name": "SILVERSAT",
        "group": "last-30-days",
        "lat": -30.54578818404772,
        "lon": -74.22743038232635,
        "alt_km": 410.32442478186385,
        "timestamp": "2025-12-25T16:53:13.373788+00:00",
        "meta_object_name": "SILVERSAT",
        "meta_object_id": "1998-067XV",
        "meta_epoch": "2025-12-24T12:08:54.950784",
        "meta_mean_motion": 15.53202951,
        "meta_eccentricity": 0.00038249,
        "meta_inclination": 51.631,
        "meta_ra_of_asc_node": 83.8633,
        "meta_arg_of_pericenter": 300.8028,
        "meta_mean_anomaly": 59.2585,
        "meta_ephemeris_type": 0,
        "meta_classification_type": "U",
        "meta_norad_cat_id": 66909,
        "meta_element_set_no": 999,
        "meta_rev_at_epoch": 344,
        "meta_bstar": 0.0011617624,
        "meta_mean_motion_dot": 0.00074602,
        "meta_mean_motion_ddot": 0,
        "tle_line1": "1 66909U 98067XV  25358.50619156  .00074602  00000+0  11618-2 0  9993",
        "tle_line2": "2 66909  51.6310  83.8633 0003824 300.8028  59.2585 15.53202951  3445"
      },
      "geometry": {
        "type": "Point",
        "coordinates": [
          -74.22743038232635,
          -30.54578818404772
        ]
      }
    },
    {
      "type": "Feature",
      "properties": {
        "norad_id": 66910,
        "name": "1998-067XW",
        "group": "last-30-days",
        "lat": -36.60075005438549,
        "lon": -66.07464571076044,
        "alt_km": 409.52028098680967,
        "timestamp": "2025-12-25T16:53:13.373800+00:00",
        "meta_object_name": "1998-067XW",
        "meta_object_id": "1998-067XW",
        "meta_epoch": "2025-12-25T05:05:39.018624",
        "meta_mean_motion": 15.53228929,
        "meta_eccentricity": 0.00038368,
        "meta_inclination": 51.6308,
        "meta_ra_of_asc_node": 80.3284,
        "meta_arg_of_pericenter": 278.3824,
        "meta_mean_anomaly": 81.6731,
        "meta_ephemeris_type": 0,
        "meta_classification_type": "U",
        "meta_norad_cat_id": 66910,
        "meta_element_set_no": 999,
        "meta_rev_at_epoch": 355,
        "meta_bstar": 0.0010169127,
        "meta_mean_motion_dot": 0.00065225,
        "meta_mean_motion_ddot": 0,
        "tle_line1": "1 66910U 98067XW  25359.21225716  .00065225  00000+0  10169-2 0  9990",
        "tle_line2": "2 66910  51.6308  80.3284 0003836 278.3824  81.6731 15.53228929  3551"
      },
      "geometry": {
        "type": "Point",
        "coordinates": [
          -66.07464571076044,
          -36.60075005438549
        ]
      }
    },
    {
      "type": "Feature",
      "properties": {
        "norad_id": 66911,
        "name": "1998-067XX",
        "group": "last-30-days",
        "lat": -48.1972462507785,
        "lon": -39.78617610943837,
        "alt_km": 408.1242633718921,
        "timestamp": "2025-12-25T16:53:13.373811+00:00",
        "meta_object_name": "1998-067XX",
        "meta_object_id": "1998-067XX",
        "meta_epoch": "2025-12-24T22:49:37.455744",
        "meta_mean_motion": 15.53703475,
        "meta_eccentricity": 0.00035293,
        "meta_inclination": 51.6305,
        "meta_ra_of_asc_node": 81.585,
        "meta_arg_of_pericenter": 283.5602,
        "meta_mean_anomaly": 76.4995,
        "meta_ephemeris_type": 0,
        "meta_classification_type": "U",
        "meta_norad_cat_id": 66911,
        "meta_element_set_no": 999,
        "meta_rev_at_epoch": 350,
        "meta_bstar": 0.0011925494,
        "meta_mean_motion_dot": 0.00078033,
        "meta_mean_motion_ddot": 0,
        "tle_line1": "1 66911U 98067XX  25358.95112796  .00078033  00000+0  11925-2 0  9996",
        "tle_line2": "2 66911  51.6305  81.5850 0003529 283.5602  76.4995 15.53703475  3505"
      },
      "geometry": {
        "type": "Point",
        "coordinates": [
          -39.78617610943837,
          -48.1972462507785
        ]
      }
    }
  ]
}